{"type": "FeatureCollection", "features": [ {"type": "Feature", "properties": {"norad_id": 44542, "name": "BEIDOU-3 M24 (C46)", "group": "gnss", "lat": 53.924018951960534, "lon": -91.14926144284463, "alt_km": 21508.475046760428, "timestamp": "2025-12-04T10:51:50.349410+00:00", "meta": {"OBJECT_NAME": "BEIDOU-3 M24 (C46)", "OBJECT_ID": "2019-061A", "EPOCH": "2025-12-03T18:58:50.860416", "MEAN_MOTION": 1.86229252, "ECCENTRICITY": 0.0009572, "INCLINATION": 54.4001, "RA_OF_ASC_NODE": 189.3183, "ARG_OF_PERICENTER": 23.909, "MEAN_ANOMALY": 336.2302, "EPHEMERIS_TYPE": 0, "CLASSIFICATION_TYPE": "U", "NORAD_CAT_ID": 44542, "ELEMENT_SET_NO": 999, "REV_AT_EPOCH": 4215, "BSTAR": 0, "MEAN_MOTION_DOT": 1.12e-06, "MEAN_MOTION_DDOT": 0}, "tle": {"line1": "1 44542U 19061A   25337.79086644  .00000112  00000+0  00000+0 0  9992", "line2": "2 44542  54.4001 189.3183 0009572  23.9090 336.2302  1.86229252 42152"}}, "geometry": {"type": "Point", "coordinates": [-91.14926144284463, 53.924018951960534]}}, {"type": "Feature", "properties": {"norad_id": 44543, "name": "BEIDOU-3 M23 (C45)", "group": "gnss", "lat": -2.8178122011091333, "lon": -172.74751080408745, "alt_km": 21513.728029949256, "timestamp": "2025-12-04T10:51:50.349421+00:00", "meta": {"OBJECT_NAME": "BEIDOU-3 M23 (C45)", "OBJECT_ID": "2019-061B", "EPOCH": "2025-12-04T04:33:30.400416", "MEAN_MOTION": 1.86227468, "ECCENTRICITY": 0.0006118, "INCLINATION": 54.3989, "RA_OF_ASC_NODE": 189.2733, "ARG_OF_PERICENTER": 22.8981, "MEAN_ANOMALY": 157.6124, "EPHEMERIS_TYPE": 0, "CLASSIFICATION_TYPE": "U", "NORAD_CAT_ID": 44543, "ELEMENT_SET_NO": 999, "REV_AT_EPOCH": 4216, "BSTAR": 0, "MEAN_MOTION_DOT": 1.08e-06, "MEAN_MOTION_DDOT": 0}, "tle": {"line1": "1 44543U 19061B   25338.18993519  .00000108  00000+0  00000+0 0  9990", "line2": "2 44543  54.3989 189.2733 0006118  22.8981 157.6124  1.86227468 42162"}}, "geometry": {"type": "Point", "coordinates": [-172.74751080408745, -2.8178122011091333]}}, {"type": "Feature", "properties": {"norad_id": 44624, "name": "EUTELSAT 5 WEST B (EGNOS/PRN 121)", "group": "gnss", "lat": -0.09537286213883057, "lon": -128.53124848880734, "alt_km": 35771.230344656535, "timestamp": "2025-12-04T10:51:50.349435+00:00", "meta": {"OBJECT_NAME": "EUTELSAT 5 WEST B (EGNOS/PRN 121)", "OBJECT_ID": "2019-067A", "EPOCH": "2025-12-03T23:44:38.650272", "MEAN_MOTION": 1.00272817, "ECCENTRICITY": 0.000373, "INCLINATION": 0.07, "RA_OF_ASC_NODE": 329.4641, "ARG_OF_PERICENTER": 284.9373, "MEAN_ANOMALY": 169.8486, "EPHEMERIS_TYPE": 0, "CLASSIFICATION_TYPE": "U", "NORAD_CAT_ID": 44624, "ELEMENT_SET_NO": 999, "REV_AT_EPOCH": 2248, "BSTAR": 0, "MEAN_MOTION_DOT": -2.5e-07, "MEAN_MOTION_DDOT": 0}, "tle": {"line1": "1 44624U 19067A   25337.98933623 -.00000025  00000+0  00000+0 0  9992", "line2": "2 44624   0.0700 329.4641 0003730 284.9373 169.8486  1.00272817 22483"}}, "geometry": {"type": "Point", "coordinates": [-128.53124848880734, -0.09537286213883057]}}, {"type": "Feature", "properties": {"norad_id": 44709, "name": "BEIDOU-3 IGSO-3 (C40)", "group": "gnss", "lat": 49.2183957494336, "lon": -23.274650235402383, "alt_km": 35893.17714676305, "timestamp": "2025-12-04T10:51:50.349449+00:00", "meta": {"OBJECT_NAME": "BEIDOU-3 IGSO-3 (C40)", "OBJECT_ID": "2019-073A", "EPOCH": "2025-11-20T07:11:22.740000", "MEAN_MOTION": 1.00250097, "ECCENTRICITY": 0.0044538, "INCLINATION": 55.163, "RA_OF_ASC_NODE": 283.159, "ARG_OF_PERICENTER": 191.5856, "MEAN_ANOMALY": 168.2409, "EPHEMERIS_TYPE": 0, "CLASSIFICATION_TYPE": "U", "NORAD_CAT_ID": 44709, "ELEMENT_SET_NO": 999, "REV_AT_EPOCH": 2236, "BSTAR": 0, "MEAN_MOTION_DOT": -2.06e-06, "MEAN_MOTION_DDOT": 0}, "tle": {"line1": "1 44709U 19073A   25324.29956875 -.00000206  00000+0  00000+0 0  9998", "line2": "2 44709  55.1630 283.1590 0044538 191.5856 168.2409  1.00250097 22360"}}, "geometry": {"type": "Point", "coordinates": [-23.274650235402383, 49.2183957494336]}}, {"type": "Feature", "properties": {"norad_id": 44793, "name": "BEIDOU-3 M22 (C44)", "group": "gnss", "lat": -8.895675728775949, "lon": 133.15704122427127, "alt_km": 21544.719590145905, "timestamp": "2025-12-04T10:51:50.349463+00:00", "meta": {"OBJECT_NAME": "BEIDOU-3 M22 (C44)", "OBJECT_ID": "2019-078A", "EPOCH": "2025-12-02T00:28:58.554624", "MEAN_MOTION": 1.86231817, "ECCENTRICITY": 0.00056333, "INCLINATION": 54.1183, "RA_OF_ASC_NODE": 306.7625, "ARG_OF_PERICENTER": 22.616, "MEAN_ANOMALY": 337.398, "EPHEMERIS_TYPE": 0, "CLASSIFICATION_TYPE": "U", "NORAD_CAT_ID": 44793, "ELEMENT_SET_NO": 999, "REV_AT_EPOCH": 4097, "BSTAR": 0, "MEAN_MOTION_DOT": -6.1e-07, "MEAN_MOTION_DDOT": 0}, "tle": {"line1": "1 44793U 19078A   25336.02012216 -.00000061  00000+0  00000+0 0  9991", "line2": "2 44793  54.1183 306.7625 0005633  22.6160 337.3980  1.86231817 40974"}}, "geometry": {"type": "Point", "coordinates": [133.15704122427127, -8.895675728775949]}}, {"type": "Feature", "properties": {"norad_id": 44794, "name": "BEIDOU-3 M21 (C43)", "group": "gnss", "lat": 53.1596364793121, "lon": 51.43821834414777, "alt_km": 21521.914608395673, "timestamp": "2025-12-04T10:51:50.349480+00:00", "meta": {"OBJECT_NAME": "BEIDOU-3 M21 (C43)", "OBJECT_ID": "2019-078B", "EPOCH": "2025-12-01T02:00:26.030304", "MEAN_MOTION": 1.86227539, "ECCENTRICITY": 0.00038706, "INCLINATION": 54.0922, "RA_OF_ASC_NODE": 306.7607, "ARG_OF_PERICENTER": 10.0971, "MEAN_ANOMALY": 349.9036, "EPHEMERIS_TYPE": 0, "CLASSIFICATION_TYPE": "U", "NORAD_CAT_ID": 44794, "ELEMENT_SET_NO": 999, "REV_AT_EPOCH": 4096, "BSTAR": 0, "MEAN_MOTION_DOT": -5.7e-07, "MEAN_MOTION_DDOT": 0}, "tle": {"line1": "1 44794U 19078B   25335.08363461 -.00000057  00000+0  00000+0 0  9993", "line2": "2 44794  54.0922 306.7607 0003870  10.0971 349.9036  1.86227539 40963"}}, "geometry": {"type": "Point", "coordinates": [51.43821834414777, 53.1596364793121]}}, {"type": "Feature", "properties": {"norad_id": 44850, "name": "COSMOS 2544 (759)", "group": "gnss", "lat": 45.971989402572426, "lon": -127.92458210938776, "alt_km": 19142.695143577905, "timestamp": "2025-12-04T10:51:50.349491+00:00", "meta": {"OBJECT_NAME": "COSMOS 2544 (759)", "OBJECT_ID": "2019-088A", "EPOCH": "2025-12-03T19:35:48.045120", "MEAN_MOTION": 2.13101769, "ECCENTRICITY": 0.00137151, "INCLINATION": 65.4552, "RA_OF_ASC_NODE": 80.257, "ARG_OF_PERICENTER": 248.9953, "MEAN_ANOMALY": 110.8552, "EPHEMERIS_TYPE": 0, "CLASSIFICATION_TYPE": "U", "NORAD_CAT_ID": 44850, "ELEMENT_SET_NO": 999, "REV_AT_EPOCH": 4655, "BSTAR": 0, "MEAN_MOTION_DOT": -2.3e-07, "MEAN_MOTION_DDOT": 0}, "tle": {"line1": "1 44850U 19088A   25337.81652830 -.00000023  00000+0  00000+0 0  9994", "line2": "2 44850  65.4552  80.2570 0013715 248.9953 110.8552  2.13101769 46551"}}, "geometry": {"type": "Point", "coordinates": [-127.92458210938776, 45.971989402572426]}}, {"type": "Feature", "properties": {"norad_id": 44864, "name": "BEIDOU-3 M19 (C41)", "group": "gnss", "lat": -49.312609347469305, "lon": 18.663807130390158, "alt_km": 21485.342908711114, "timestamp": "2025-12-04T10:51:50.349502+00:00", "meta": {"OBJECT_NAME": "BEIDOU-3 M19 (C41)", "OBJECT_ID": "2019-090A", "EPOCH": "2025-12-02T22:27:31.551840", "MEAN_MOTION": 1.86231053, "ECCENTRICITY": 0.00175607, "INCLINATION": 56.3847, "RA_OF_ASC_NODE": 69.2872, "ARG_OF_PERICENTER": 284.9296, "MEAN_ANOMALY": 72.494, "EPHEMERIS_TYPE": 0, "CLASSIFICATION_TYPE": "U", "NORAD_CAT_ID": 44864, "ELEMENT_SET_NO": 999, "REV_AT_EPOCH": 4057, "BSTAR": 0, "MEAN_MOTION_DOT": -4.9e-07, "MEAN_MOTION_DDOT": 0}, "tle": {"line1": "1 44864U 19090A   25336.93578185 -.00000049  00000+0  00000+0 0  9992", "line2": "2 44864  56.3847  69.2872 0017560 284.9296  72.4940  1.86231053 40575"}}, "geometry": {"type": "Point", "coordinates": [18.663807130390158, -49.312609347469305]}}, {"type": "Feature", "properties": {"norad_id": 44865, "name": "BEIDOU-3 M20 (C42)", "group": "gnss", "lat": 19.96185343260069, "lon": 83.23260315626176, "alt_km": 21523.14240049655, "timestamp": "2025-12-04T10:51:50.349515+00:00", "meta": {"OBJECT_NAME": "BEIDOU-3 M20 (C42)", "OBJECT_ID": "2019-090B", "EPOCH": "2025-12-02T19:15:49.919904", "MEAN_MOTION": 1.86231044, "ECCENTRICITY": 0.00146831, "INCLINATION": 56.3861, "RA_OF_ASC_NODE": 69.3259, "ARG_OF_PERICENTER": 297.6742, "MEAN_ANOMALY": 60.1134, "EPHEMERIS_TYPE": 0, "CLASSIFICATION_TYPE": "U", "NORAD_CAT_ID": 44865, "ELEMENT_SET_NO": 999, "REV_AT_EPOCH": 4055, "BSTAR": 0, "MEAN_MOTION_DOT": -4.8e-07, "MEAN_MOTION_DDOT": 0}, "tle": {"line1": "1 44865U 19090B   25336.80266111 -.00000048  00000+0  00000+0 0  9991", "line2": "2 44865  56.3861  69.3259 0014683 297.6742  60.1134  1.86231044 40559"}}, "geometry": {"type": "Point", "coordinates": [83.23260315626176, 19.96185343260069]}}, {"type": "Feature", "properties": {"norad_id": 45344, "name": "BEIDOU-3 G2 (C60)", "group": "gnss", "lat": -2.985508788828228, "lon": -43.46861643004394, "alt_km": 35767.523378457656, "timestamp": "2025-12-04T10:51:50.349527+00:00", "meta": {"OBJECT_NAME": "BEIDOU-3 G2 (C60)", "OBJECT_ID": "2020-017A", "EPOCH": "2025-12-04T03:50:04.560000", "MEAN_MOTION": 1.00270213, "ECCENTRICITY": 0.0004673, "INCLINATION": 2.9843, "RA_OF_ASC_NODE": 43.5798, "ARG_OF_PERICENTER": 263.9443, "MEAN_ANOMALY": 263.2835, "EPHEMERIS_TYPE": 0, "CLASSIFICATION_TYPE": "U", "NORAD_CAT_ID": 45344, "ELEMENT_SET_NO": 999, "REV_AT_EPOCH": 2130, "BSTAR": 0, "MEAN_MOTION_DOT": -1.27e-06, "MEAN_MOTION_DDOT": 0}, "tle": {"line1": "1 45344U 20017A   25338.15977500 -.00000127  00000+0  00000+0 0  9994", "line2": "2 45344   2.9843  43.5798 0004673 263.9443 263.2835  1.00270213 21306"}}, "geometry": {"type": "Point", "coordinates": [-43.46861643004394, -2.985508788828228]}}]}